ONEWEB-0373             
1 49299U 21090W   26130.15815034  .00000143  00000+0  31827-3 0  9995
2 49299  87.9155 282.0287 0001852 100.6373 259.4969 13.20867744226001
ONEWEB-0374             
1 49300U 21090X   26129.98370360  .00000291  00000+0  75087-3 0  9995
2 49300  87.8929 297.3189 0002348 102.7056 257.4336 13.14504432222540
ONEWEB-0375             
1 49301U 21090Y   26129.91852912 -.00000786  00000+0 -19655-2 0  9996
2 49301  87.9158 282.0672 0002346 107.4238 252.7152 13.20759912225477
ONEWEB-0376             
1 49302U 21090Z   26130.05243815 -.00000050  00000+0 -15730-3 0  9995
2 49302  87.9155 312.5681 0001774  83.8520 276.2815 13.19726627221422
ONEWEB-0377             
1 49303U 21090AA  26130.13198983 -.00000177  00000+0 -46789-3 0  9998
2 49303  87.9159 282.0264 0001815 103.4785 256.6550 13.20659412225491
ONEWEB-0378             
1 49304U 21090AB  26129.92618690  .00001258  00000+0  30553-2 0  9996
2 49304  87.9154 282.0745 0001970  97.6868 262.4489 13.20903919224735
ONEWEB-0379             
1 49305U 21090AC  26129.90284132  .00000201  00000+0  50679-3 0  9994
2 49305  87.8929 297.3462 0001931  95.5707 264.5643 13.14503303222533
ONEWEB-0380             
1 49306U 21090AD  26130.20091720  .00000126  00000+0  28287-3 0  9995
2 49306  87.9146 312.5471 0001817  97.3728 262.7611 13.19725939221419
ONEWEB-0381             
1 49307U 21090AE  26129.97711949 -.00000126  00000+0 -34248-3 0  9996
2 49307  87.9158 282.0615 0002098 102.1912 257.9457 13.20687856224780
ONEWEB-0382             
1 49308U 21090AF  26130.11571179  .00000064  00000+0  12503-3 0  9993
2 49308  87.9157 282.0292 0002171  99.7770 260.3608 13.20798494224794
ONEWEB-0383             
1 49309U 21090AG  26129.97262514  .00000080  00000+0  18056-3 0  9993
2 49309  87.8936 297.3211 0001960  93.5148 266.6206 13.14503797222575
ONEWEB-0384             
1 49310U 21090AH  26130.18112294 -.00000014  00000+0 -66745-4 0  9997
2 49310  87.9159 282.0592 0002380  99.3334 260.8068 13.20810572224816
ONEWEB-0385             
1 49311U 21090AJ  26130.18397831 -.00000510  00000+0 -12884-2 0  9994
2 49311  87.9156 282.0203 0002095  99.1181 261.0190 13.20645690224786
ONEWEB-0386             
1 49312U 21090AK  26130.12542115  .00000127  00000+0  28135-3 0  9995
2 49312  87.9165 282.0213 0002073  97.5074 262.6295 13.20717431224794
ONEWEB-0387             
1 49313U 21090AL  26130.10984088  .00000077  00000+0  15796-3 0  9996
2 49313  87.9146 282.0518 0001879 107.6760 252.4579 13.20636305224792
ONEWEB-0388             
1 49314U 21090AM  26130.19618186 -.00000002  00000+0 -37367-4 0  9998
2 49314  87.9146 312.5462 0001929  91.5744 268.5610 13.19724937221405
