[{"OBJECT_NAME":"ONEWEB-0373","OBJECT_ID":"2021-090W","EPOCH":"2026-05-10T03:47:44.189376","MEAN_MOTION":13.20867744,"ECCENTRICITY":0.0001852,"INCLINATION":87.9155,"RA_OF_ASC_NODE":282.0287,"ARG_OF_PERICENTER":100.6373,"MEAN_ANOMALY":259.4969,"EPHEMERIS_TYPE":0,"CLASSIFICATION_TYPE":"U","NORAD_CAT_ID":49299,"ELEMENT_SET_NO":999,"REV_AT_EPOCH":22600,"BSTAR":0.00031827,"MEAN_MOTION_DOT":1.43e-06,"MEAN_MOTION_DDOT":0.0},{"OBJECT_NAME":"ONEWEB-0374","OBJECT_ID":"2021-090X","EPOCH":"2026-05-09T23:36:31.991040","MEAN_MOTION":13.14504432,"ECCENTRICITY":0.0002348,"INCLINATION":87.8929,"RA_OF_ASC_NODE":297.3189,"ARG_OF_PERICENTER":102.7056,"MEAN_ANOMALY":257.4336,"EPHEMERIS_TYPE":0,"CLASSIFICATION_TYPE":"U","NORAD_CAT_ID":49300,"ELEMENT_SET_NO":999,"REV_AT_EPOCH":22254,"BSTAR":0.00075087,"MEAN_MOTION_DOT":2.91e-06,"MEAN_MOTION_DDOT":0.0},{"OBJECT_NAME":"ONEWEB-0375","OBJECT_ID":"2021-090Y","EPOCH":"2026-05-09T22:02:40.915968","MEAN_MOTION":13.20759912,"ECCENTRICITY":0.0002346,"INCLINATION":87.9158,"RA_OF_ASC_NODE":282.0672,"ARG_OF_PERICENTER":107.4238,"MEAN_ANOMALY":252.7152,"EPHEMERIS_TYPE":0,"CLASSIFICATION_TYPE":"U","NORAD_CAT_ID":49301,"ELEMENT_SET_NO":999,"REV_AT_EPOCH":22547,"BSTAR":-0.0019655000000000002,"MEAN_MOTION_DOT":-7.86e-06,"MEAN_MOTION_DDOT":0.0},{"OBJECT_NAME":"ONEWEB-0376","OBJECT_ID":"2021-090Z","EPOCH":"2026-05-10T01:15:30.656160","MEAN_MOTION":13.19726627,"ECCENTRICITY":0.0001774,"INCLINATION":87.9155,"RA_OF_ASC_NODE":312.5681,"ARG_OF_PERICENTER":83.852,"MEAN_ANOMALY":276.2815,"EPHEMERIS_TYPE":0,"CLASSIFICATION_TYPE":"U","NORAD_CAT_ID":49302,"ELEMENT_SET_NO":999,"REV_AT_EPOCH":22142,"BSTAR":-0.0001573,"MEAN_MOTION_DOT":-5e-07,"MEAN_MOTION_DDOT":0.0},{"OBJECT_NAME":"ONEWEB-0377","OBJECT_ID":"2021-090AA","EPOCH":"2026-05-10T03:10:03.921312","MEAN_MOTION":13.20659412,"ECCENTRICITY":0.0001815,"INCLINATION":87.9159,"RA_OF_ASC_NODE":282.0264,"ARG_OF_PERICENTER":103.4785,"MEAN_ANOMALY":256.655,"EPHEMERIS_TYPE":0,"CLASSIFICATION_TYPE":"U","NORAD_CAT_ID":49303,"ELEMENT_SET_NO":999,"REV_AT_EPOCH":22549,"BSTAR":-0.00046789,"MEAN_MOTION_DOT":-1.77e-06,"MEAN_MOTION_DDOT":0.0},{"OBJECT_NAME":"ONEWEB-0378","OBJECT_ID":"2021-090AB","EPOCH":"2026-05-09T22:13:42.548160","MEAN_MOTION":13.20903919,"ECCENTRICITY":0.000197,"INCLINATION":87.9154,"RA_OF_ASC_NODE":282.0745,"ARG_OF_PERICENTER":97.6868,"MEAN_ANOMALY":262.4489,"EPHEMERIS_TYPE":0,"CLASSIFICATION_TYPE":"U","NORAD_CAT_ID":49304,"ELEMENT_SET_NO":999,"REV_AT_EPOCH":22473,"BSTAR":0.0030553000000000004,"MEAN_MOTION_DOT":1.258e-05,"MEAN_MOTION_DDOT":0.0},{"OBJECT_NAME":"ONEWEB-0379","OBJECT_ID":"2021-090AC","EPOCH":"2026-05-09T21:40:05.490048","MEAN_MOTION":13.14503303,"ECCENTRICITY":0.0001931,"INCLINATION":87.8929,"RA_OF_ASC_NODE":297.3462,"ARG_OF_PERICENTER":95.5707,"MEAN_ANOMALY":264.5643,"EPHEMERIS_TYPE":0,"CLASSIFICATION_TYPE":"U","NORAD_CAT_ID":49305,"ELEMENT_SET_NO":999,"REV_AT_EPOCH":22253,"BSTAR":0.00050679,"MEAN_MOTION_DOT":2.01e-06,"MEAN_MOTION_DDOT":0.0},{"OBJECT_NAME":"ONEWEB-0380","OBJECT_ID":"2021-090AD","EPOCH":"2026-05-10T04:49:19.246080","MEAN_MOTION":13.19725939,"ECCENTRICITY":0.0001817,"INCLINATION":87.9146,"RA_OF_ASC_NODE":312.5471,"ARG_OF_PERICENTER":97.3728,"MEAN_ANOMALY":262.7611,"EPHEMERIS_TYPE":0,"CLASSIFICATION_TYPE":"U","NORAD_CAT_ID":49306,"ELEMENT_SET_NO":999,"REV_AT_EPOCH":22141,"BSTAR":0.00028287,"MEAN_MOTION_DOT":1.26e-06,"MEAN_MOTION_DDOT":0.0},{"OBJECT_NAME":"ONEWEB-0381","OBJECT_ID":"2021-090AE","EPOCH":"2026-05-09T23:27:03.123936","MEAN_MOTION":13.20687856,"ECCENTRICITY":0.0002098,"INCLINATION":87.9158,"RA_OF_ASC_NODE":282.0615,"ARG_OF_PERICENTER":102.1912,"MEAN_ANOMALY":257.9457,"EPHEMERIS_TYPE":0,"CLASSIFICATION_TYPE":"U","NORAD_CAT_ID":49307,"ELEMENT_SET_NO":999,"REV_AT_EPOCH":22478,"BSTAR":-0.00034248,"MEAN_MOTION_DOT":-1.26e-06,"MEAN_MOTION_DDOT":0.0},{"OBJECT_NAME":"ONEWEB-0382","OBJECT_ID":"2021-090AF","EPOCH":"2026-05-10T02:46:37.498656","MEAN_MOTION":13.20798494,"ECCENTRICITY":0.0002171,"INCLINATION":87.9157,"RA_OF_ASC_NODE":282.0292,"ARG_OF_PERICENTER":99.777,"MEAN_ANOMALY":260.3608,"EPHEMERIS_TYPE":0,"CLASSIFICATION_TYPE":"U","NORAD_CAT_ID":49308,"ELEMENT_SET_NO":999,"REV_AT_EPOCH":22479,"BSTAR":0.00012503000000000001,"MEAN_MOTION_DOT":6.4e-07,"MEAN_MOTION_DDOT":0.0},{"OBJECT_NAME":"ONEWEB-0383","OBJECT_ID":"2021-090AG","EPOCH":"2026-05-09T23:20:34.812096","MEAN_MOTION":13.14503797,"ECCENTRICITY":0.000196,"INCLINATION":87.8936,"RA_OF_ASC_NODE":297.3211,"ARG_OF_PERICENTER":93.5148,"MEAN_ANOMALY":266.6206,"EPHEMERIS_TYPE":0,"CLASSIFICATION_TYPE":"U","NORAD_CAT_ID":49309,"ELEMENT_SET_NO":999,"REV_AT_EPOCH":22257,"BSTAR":0.00018056,"MEAN_MOTION_DOT":8e-07,"MEAN_MOTION_DDOT":0.0},{"OBJECT_NAME":"ONEWEB-0384","OBJECT_ID":"2021-090AH","EPOCH":"2026-05-10T04:20:49.022016","MEAN_MOTION":13.20810572,"ECCENTRICITY":0.000238,"INCLINATION":87.9159,"RA_OF_ASC_NODE":282.0592,"ARG_OF_PERICENTER":99.3334,"MEAN_ANOMALY":260.8068,"EPHEMERIS_TYPE":0,"CLASSIFICATION_TYPE":"U","NORAD_CAT_ID":49310,"ELEMENT_SET_NO":999,"REV_AT_EPOCH":22481,"BSTAR":-6.6745e-05,"MEAN_MOTION_DOT":-1.4e-07,"MEAN_MOTION_DDOT":0.0},{"OBJECT_NAME":"ONEWEB-0385","OBJECT_ID":"2021-090AJ","EPOCH":"2026-05-10T04:24:55.725984","MEAN_MOTION":13.2064569,"ECCENTRICITY":0.0002095,"INCLINATION":87.9156,"RA_OF_ASC_NODE":282.0203,"ARG_OF_PERICENTER":99.1181,"MEAN_ANOMALY":261.019,"EPHEMERIS_TYPE":0,"CLASSIFICATION_TYPE":"U","NORAD_CAT_ID":49311,"ELEMENT_SET_NO":999,"REV_AT_EPOCH":22478,"BSTAR":-0.0012884,"MEAN_MOTION_DOT":-5.1e-06,"MEAN_MOTION_DDOT":0.0},{"OBJECT_NAME":"ONEWEB-0386","OBJECT_ID":"2021-090AK","EPOCH":"2026-05-10T03:00:36.387360","MEAN_MOTION":13.20717431,"ECCENTRICITY":0.0002073,"INCLINATION":87.9165,"RA_OF_ASC_NODE":282.0213,"ARG_OF_PERICENTER":97.5074,"MEAN_ANOMALY":262.6295,"EPHEMERIS_TYPE":0,"CLASSIFICATION_TYPE":"U","NORAD_CAT_ID":49312,"ELEMENT_SET_NO":999,"REV_AT_EPOCH":22479,"BSTAR":0.00028135,"MEAN_MOTION_DOT":1.27e-06,"MEAN_MOTION_DDOT":0.0},{"OBJECT_NAME":"ONEWEB-0387","OBJECT_ID":"2021-090AL","EPOCH":"2026-05-10T02:38:10.252032","MEAN_MOTION":13.20636305,"ECCENTRICITY":0.0001879,"INCLINATION":87.9146,"RA_OF_ASC_NODE":282.0518,"ARG_OF_PERICENTER":107.676,"MEAN_ANOMALY":252.4579,"EPHEMERIS_TYPE":0,"CLASSIFICATION_TYPE":"U","NORAD_CAT_ID":49313,"ELEMENT_SET_NO":999,"REV_AT_EPOCH":22479,"BSTAR":0.00015795999999999999,"MEAN_MOTION_DOT":7.7e-07,"MEAN_MOTION_DDOT":0.0},{"OBJECT_NAME":"ONEWEB-0388","OBJECT_ID":"2021-090AM","EPOCH":"2026-05-10T04:42:30.112704","MEAN_MOTION":13.19724937,"ECCENTRICITY":0.0001929,"INCLINATION":87.9146,"RA_OF_ASC_NODE":312.5462,"ARG_OF_PERICENTER":91.5744,"MEAN_ANOMALY":268.561,"EPHEMERIS_TYPE":0,"CLASSIFICATION_TYPE":"U","NORAD_CAT_ID":49314,"ELEMENT_SET_NO":999,"REV_AT_EPOCH":22140,"BSTAR":-3.7367e-05,"MEAN_MOTION_DOT":-2e-08,"MEAN_MOTION_DDOT":0.0}]